NORAD_CAT_ID,OBJECT_NAME,OBJECT_TYPE,EPOCH,MEAN_MOTION,ECCENTRICITY,INCLINATION,RA_OF_ASC_NODE,ARG_OF_PERICENTER,MEAN_ANOMALY,BSTAR,MEAN_MOTION_DOT,MEAN_MOTION_DDOT,TLE_LINE0,TLE_LINE1,TLE_LINE2,SEMIMAJOR_AXIS,PERIOD,APOGEE,PERIGEE,DECAYED
55274.0,STARLINK-5236,PAYLOAD,2024-04-21 20:28:16,14.98322626,0.0002665,69.9994,316.3819,261.8587,98.227,0.00010055,1.107e-05,0.0,0 STARLINK-5236,1 55274U 23010F   24112.85297216  .00001107  00000-0  10055-3 0  9992,2 55274  69.9994 316.3819 0002665 261.8587  98.2270 14.98322626 70073,6950.216,96.107,573.933,570.228,0.0
55274.0,STARLINK-5236,PAYLOAD,2024-04-21 22:04:24,14.98323286,0.0002651,69.9994,316.2137,261.4188,98.6671,0.00010672,1.18e-05,0.0,0 STARLINK-5236,1 55274U 23010F   24112.91973189  .00001180  00000-0  10672-3 0  9995,2 55274  69.9994 316.2137 0002651 261.4188  98.6671 14.98323286 70402,6950.214,96.107,573.921,570.236,0.0
55274.0,STARLINK-5236,PAYLOAD,2024-04-21 23:40:32,14.98323998,0.0002648,69.9995,316.0455,261.4049,98.681,0.00011218,1.246e-05,0.0,0 STARLINK-5236,1 55274U 23010F   24112.98649161  .00001246  00000-0  11218-3 0  9992,2 55274  69.9995 316.0455 0002648 261.4049  98.6810 14.98323998 70412,6950.211,96.107,573.917,570.236,0.0
55274.0,STARLINK-5236,PAYLOAD,2024-04-22 20:30:17,14.98326197,0.0002614,69.9996,313.8566,261.1816,98.9047,2.9448e-05,2.58e-06,0.0,0 STARLINK-5236,1 55274U 23010F   24113.85437473  .00000258  00000-0  29448-4 0  9997,2 55274  69.9996 313.8566 0002614 261.1816  98.9047 14.98326197 70221,6950.205,96.107,573.886,570.253,0.0
55274.0,STARLINK-5236,PAYLOAD,2024-04-22 22:06:26,14.98326545,0.0002608,69.9996,313.6883,261.2275,98.8589,3.2785e-05,2.98e-06,0.0,0 STARLINK-5236,1 55274U 23010F   24113.92113457  .00000298  00000-0  32785-4 0  9990,2 55274  69.9996 313.6883 0002608 261.2275  98.8589 14.98326545 70557,6950.204,96.107,573.881,570.256,0.0
55274.0,STARLINK-5236,PAYLOAD,2024-04-23 14:07:46,14.98329404,0.0002653,69.9995,312.0046,255.4116,104.6749,3.6994e-05,3.48e-06,0.0,0 STARLINK-5236,1 55274U 23010F   24114.58873284  .00000348  00000-0  36994-4 0  9996,2 55274  69.9995 312.0046 0002653 255.4116 104.6749 14.98329404 70651,6950.195,96.107,573.904,570.216,0.0
55274.0,STARLINK-5236,PAYLOAD,2024-04-23 20:32:18,14.98329615,0.0002674,69.9995,311.3316,256.8107,103.2754,3.2792e-05,2.98e-06,0.0,0 STARLINK-5236,1 55274U 23010F   24114.85577302  .00000298  00000-0  32792-4 0  9994,2 55274  69.9995 311.3316 0002674 256.8107 103.2754 14.98329615 70375,6950.194,96.107,573.918,570.201,0.0
55274.0,STARLINK-5236,PAYLOAD,2024-04-23 22:08:26,14.98328733,0.0002651,69.9995,311.1629,260.9323,99.1536,2.4535e-05,2e-06,0.0,0 STARLINK-5236,1 55274U 23010F   24114.92253409  .00000200  00000-0  24535-4 0  9990,2 55274  69.9995 311.1629 0002651 260.9323  99.1536 14.98328733 70709,6950.197,96.107,573.904,570.219,0.0
55274.0,STARLINK-5236,PAYLOAD,2024-04-24 14:09:47,14.98339114,0.0003012,70.0003,309.475,262.1792,97.9025,-0.00013839,-1.744e-05,0.0,0 STARLINK-5236,1 55274U 23010F   24115.59013165 -.00001744  00000-0 -13839-3 0  9997,2 55274  70.0003 309.4750 0003012 262.1792  97.9025 14.98339114 70808,6950.165,96.106,574.123,569.936,0.0
55274.0,STARLINK-5236,PAYLOAD,2024-04-24 20:34:19,14.98329995,0.0002761,69.9994,308.8054,256.7368,103.3483,3.8304e-05,3.64e-06,0.0,0 STARLINK-5236,1 55274U 23010F   24115.85717196  .00000364  00000-0  38304-4 0  9991,2 55274  69.9994 308.8054 0002761 256.7368 103.3483 14.98329995 70527,6950.193,96.107,573.977,570.139,0.0
55274.0,STARLINK-5236,PAYLOAD,2024-04-24 22:10:27,14.98331316,0.0002792,69.9993,308.6372,260.8652,99.2191,4.5165e-05,4.46e-06,0.0,0 STARLINK-5236,1 55274U 23010F   24115.92393115  .00000446  00000-0  45165-4 0  9994,2 55274  69.9993 308.6372 0002792 260.8652  99.2191 14.98331316 70858,6950.189,96.107,573.994,570.113,0.0
55274.0,STARLINK-5236,PAYLOAD,2024-04-25 14:11:48,14.98328792,0.000274,69.9994,306.9542,258.4347,101.6505,7.4579e-07,-8.4e-07,0.0,0 STARLINK-5236,1 55274U 23010F   24116.59153383 -.00000084  00000-0  74579-6 0  9991,2 55274  69.9994 306.9542 0002740 258.4347 101.6505 14.98328792 70958,6950.197,96.107,573.966,570.157,0.0
55274.0,STARLINK-5236,PAYLOAD,2024-04-25 20:36:20,14.98326916,0.0002743,69.9996,306.2801,255.793,104.2925,1.6457e-05,1.03e-06,0.0,0 STARLINK-5236,1 55274U 23010F   24116.85857490  .00000103  00000-0  16457-4 0  9990,2 55274  69.9996 306.2801 0002743 255.7930 104.2925 14.98326916 70672,6950.202,96.107,573.974,570.161,0.0
55274.0,STARLINK-5236,PAYLOAD,2024-04-25 22:12:28,14.98328554,0.0002843,69.9993,306.1124,263.2519,96.8317,1.0653e-05,3.4e-07,0.0,0 STARLINK-5236,1 55274U 23010F   24116.92533443  .00000034  00000-0  10653-4 0  9992,2 55274  69.9993 306.1124 0002843 263.2519  96.8317 14.98328554 71003,6950.197,96.107,574.038,570.086,0.0
55274.0,STARLINK-5236,PAYLOAD,2024-04-26 14:13:49,14.98284572,0.0002658,69.999,304.4279,270.2497,89.8358,0.0006908,8.149e-05,0.0,0 STARLINK-5236,1 55274U 23010F   24117.59293980  .00008149  00000-0  69080-3 0  9997,2 55274  69.9990 304.4279 0002658 270.2497  89.8358 14.98284572 71108,6950.333,96.11,574.046,570.351,0.0
55274.0,STARLINK-5236,PAYLOAD,2024-04-26 15:49:57,14.98327233,0.0002919,69.9989,304.2595,270.5264,89.5561,-7.5778e-06,-1.83e-06,0.0,0 STARLINK-5236,1 55274U 23010F   24117.65969645 -.00000183  00000-0 -75778-5 0  9997,2 55274  69.9989 304.2595 0002919 270.5264  89.5561 14.98327233 71116,6950.201,96.107,574.095,570.038,0.0
55274.0,STARLINK-5236,PAYLOAD,2024-04-27 12:39:42,14.9832808,0.0002948,69.9985,302.0702,269.5122,90.5699,5.7192e-05,5.89e-06,0.0,0 STARLINK-5236,1 55274U 23010F   24118.52757391  .00000589  00000-0  57192-4 0  9994,2 55274  69.9985 302.0702 0002948 269.5122  90.5699 14.98328080 70924,6950.199,96.107,574.113,570.015,0.0
55274.0,STARLINK-5236,PAYLOAD,2024-04-27 14:15:50,14.98327569,0.0002895,69.9985,301.9018,268.921,91.1618,4.29e-05,4.19e-06,0.0,0 STARLINK-5236,1 55274U 23010F   24118.59433471  .00000419  00000-0  42900-4 0  9994,2 55274  69.9985 301.9018 0002895 268.9210  91.1618 14.98327569 71250,6950.2,96.107,574.077,570.053,0.0
55274.0,STARLINK-5236,PAYLOAD,2024-04-27 22:16:30,14.98329758,0.0003138,69.998,301.0607,271.4143,88.6657,4.2819e-05,4.18e-06,0.0,0 STARLINK-5236,1 55274U 23010F   24118.92813367  .00000418  00000-0  42819-4 0  9995,2 55274  69.9980 301.0607 0003138 271.4143  88.6657 14.98329758 71307,6950.194,96.107,574.24,569.878,0.0
55274.0,STARLINK-5236,PAYLOAD,2024-04-28 12:41:43,14.98325002,0.0002927,69.9982,299.5456,270.2947,89.7877,-1.5618e-05,-2.79e-06,0.0,0 STARLINK-5236,1 55274U 23010F   24119.52897941 -.00000279  00000-0 -15618-4 0  9996,2 55274  69.9982 299.5456 0002927 270.2947  89.7877 14.98325002 71074,6950.208,96.107,574.108,570.039,0.0
55274.0,STARLINK-5236,PAYLOAD,2024-04-28 14:17:51,14.98325608,0.0002883,69.9984,299.3766,268.8618,91.2211,-7.5073e-06,-1.83e-06,0.0,0 STARLINK-5236,1 55274U 23010F   24119.59573885 -.00000183  00000-0 -75073-5 0  9997,2 55274  69.9984 299.3766 0002883 268.8618  91.2211 14.98325608 71406,6950.206,96.107,574.075,570.068,0.0
55274.0,STARLINK-5236,PAYLOAD,2024-04-28 22:18:32,14.98309853,0.0002768,69.9984,298.5348,270.8973,89.1869,0.00031333,3.646e-05,0.0,0 STARLINK-5236,1 55274U 23010F   24119.92954257  .00003646  00000-0  31333-3 0  9994,2 55274  69.9984 298.5348 0002768 270.8973  89.1869 14.98309853 71456,6950.255,96.108,574.044,570.196,0.0
55274.0,STARLINK-5236,PAYLOAD,2024-04-29 12:43:44,14.98331845,0.000293,69.9983,297.0204,273.0255,87.0569,6.8408e-05,7.23e-06,0.0,0 STARLINK-5236,1 55274U 23010F   24120.53037323  .00000723  00000-0  68408-4 0  9996,2 55274  69.9983 297.0204 0002930 273.0255  87.0569 14.98331845 71224,6950.187,96.107,574.089,570.016,0.0
55274.0,STARLINK-5236,PAYLOAD,2024-04-29 14:19:52,14.983319,0.0002935,69.9983,296.8521,272.9711,87.1112,6.7991e-05,7.18e-06,0.0,0 STARLINK-5236,1 55274U 23010F   24120.59713310  .00000718  00000-0  67991-4 0  9999,2 55274  69.9983 296.8521 0002935 272.9711  87.1112 14.98331900 71556,6950.187,96.107,574.092,570.012,0.0
55274.0,STARLINK-5236,PAYLOAD,2024-04-29 20:44:24,14.98333704,0.0002935,69.9983,296.1788,272.5758,87.5065,7.0225e-05,7.45e-06,0.0,0 STARLINK-5236,1 55274U 23010F   24120.86417147  .00000745  00000-0  70225-4 0  9992,2 55274  69.9983 296.1788 0002935 272.5758  87.5065 14.98333704 71590,6950.181,96.107,574.086,570.007,0.0
55274.0,STARLINK-5236,PAYLOAD,2024-04-30 12:45:45,14.98330357,0.0002918,69.9983,294.4953,269.6777,90.4048,4.3144e-05,4.22e-06,0.0,0 STARLINK-5236,1 55274U 23010F   24121.53177305  .00000422  00000-0  43144-4 0  9998,2 55274  69.9983 294.4953 0002918 269.6777  90.4048 14.98330357 71375,6950.192,96.107,574.085,570.029,0.0
55274.0,STARLINK-5236,PAYLOAD,2024-04-30 14:21:53,14.98329932,0.0002934,69.9983,294.3271,269.2858,90.7965,3.4895e-05,3.23e-06,0.0,0 STARLINK-5236,1 55274U 23010F   24121.59853345  .00000323  00000-0  34895-4 0  9992,2 55274  69.9983 294.3271 0002934 269.2858  90.7965 14.98329932 71706,6950.193,96.107,574.097,570.019,0.0
55274.0,STARLINK-5236,PAYLOAD,2024-04-30 20:46:25,14.98330754,0.0002949,69.9984,293.6539,268.5416,91.5405,3.764e-05,3.56e-06,0.0,0 STARLINK-5236,1 55274U 23010F   24121.86557261  .00000356  00000-0  37640-4 0  9997,2 55274  69.9984 293.6539 0002949 268.5416  91.5405 14.98330754 71740,6950.191,96.107,574.105,570.006,0.0
55274.0,STARLINK-5236,PAYLOAD,2024-05-01 11:11:37,14.9833455,0.0002954,69.9985,292.1391,269.5084,90.5737,6.3092e-06,-1.8e-07,0.0,0 STARLINK-5236,1 55274U 23010F   24122.46640986 -.00000018  00000-0  63092-5 0  9998,2 55274  69.9985 292.1391 0002954 269.5084  90.5737 14.98334550 71834,6950.179,96.107,574.097,569.991,0.0
55274.0,STARLINK-5236,PAYLOAD,2024-05-01 17:36:09,14.98336753,0.0003017,69.9983,291.4656,270.1795,89.9019,3.5763e-06,-5e-07,0.0,0 STARLINK-5236,1 55274U 23010F   24122.73344741 -.00000050  00000-0  35763-5 0  9998,2 55274  69.9983 291.4656 0003017 270.1795  89.9019 14.98336753 71557,6950.172,96.107,574.134,569.94,0.0
